Name,Address,Phone,Distance,Latitude,Longitude
ORTHOPAEDIC INST FOR CHILDREN,"403 W ADAMS BLVDLOS ANGELES, CA 90007",(213) 742-1128,0.0 mi,34.0276982,-118.2735459
CVS PHARMACY,"3335 S FIGUEROA ST STE QLOS ANGELES, CA 90007",(213) 742-6765,0.0 mi,34.0227992,-118.2798382
CVS PHARMACY,"1919 S HOOVER STLOS ANGELES, CA 90007",(213) 741-6099,0.0 mi,34.0392195,-118.2845537
MEKAGREEN PHARMACY,"1373 W 29TH ST STE ALOS ANGELES, CA 90007",(323) 643-4240,0.0 mi,34.0285778,-118.290981
USC PHARMACY,"3601 TROUSDALE PKWYLOS ANGELES, CA 90089",(213) 740-2738,0.36 mi,34.0200659,-118.2860988
USC HEALTH CENTER PHARMACY,"1150 W JEFFERSON BLVD STE 150LOS ANGELES, CA 90089",(213) 821-6100,0.36 mi,34.025173,-118.2888758
CVS PHARMACY,"3131 S HOOVER ST UNIT 9ALOS ANGELES, CA 90089",(213) 763-0588,0.36 mi,34.026081,-118.284628
CALIFORNIA FAMILY PHARMACY,"1600 S HILL ST STE BLOS ANGELES, CA 90015",(213) 746-3777,1.40 mi,34.0343276,-118.2644709
ESSENTIAL MEDICAL,"1414 S GRAND AVE STE 100LOS ANGELES, CA 90015",(213) 481-2200,1.40 mi,34.0365455,-118.2654217
CVS PHARMACY,"1026 S BROADWAY SPC ALOS ANGELES, CA 90015",(213) 419-9555,1.40 mi,34.040511,-118.2576805
CAL MED PHARMACY,"1414 S GRAND AVE STE 101LOS ANGELES, CA 90015",(213) 746-4677,1.40 mi,34.0364573,-118.2653738
SOUTH PARK PHARMACY,"1120 S GRAND AVE STE 103LOS ANGELES, CA 90015",(213) 745-5000,1.40 mi,34.0402656,-118.2628242
GRAND AVE PHARMACY,"1400 S GRAND AVE STE 100LOS ANGELES, CA 90015",(213) 746-4114,1.40 mi,34.0368416,-118.2652246
GRAND SPECIALTY PHARMACY,"1513 S GRAND AVE SUITE 100LOS ANGELES, CA 90015",(213) 747-3200,1.40 mi,34.0361296,-118.2666257
EISNER PEDIATRIC & FAMILY CTR,"1500 S OLIVE STLOS ANGELES, CA 90015",(213) 342-3333,1.40 mi,34.0355945,-118.2647678
RALPHS PHARMACY,"645 W 9TH STLOS ANGELES, CA 90015",(213) 452-0830,1.40 mi,34.0454286,-118.2607251
AHF PHARMACY-DOWNTOWN,"1400 S GRAND AVE STE 801LOS ANGELES, CA 90015",(213) 741-5271,1.40 mi,34.0367882,-118.2651614
PICO UNION PHARMACY,"1273 S UNION AVELOS ANGELES, CA 90015",(213) 380-3124,1.40 mi,34.0453621,-118.2771569
RITE AID PHARMACY,"446 E WASHINGTON BLVDLOS ANGELES, CA 90015",(213) 747-9581,1.40 mi,34.028338,-118.260675
JAYS DRUG,"3154 W OLYMPIC BLVDLOS ANGELES, CA 90006",(323) 731-4696,1.54 mi,34.0524605,-118.3048152
PICO SQUARE PHARMACY,"2334 W PICO BLVDLOS ANGELES, CA 90006",(213) 385-0076,1.54 mi,34.0468936,-118.2875204
SAMSUNG CARE PHARMACY,"2717 W OLYMPIC BLVD STE 105LOS ANGELES, CA 90006",(213) 263-2039,1.54 mi,34.0530992,-118.2923709
MARIPOSA PHARMACY,"2970 W OLYMPIC BLVD # 104LOS ANGELES, CA 90006",(213) 365-5067,1.54 mi,34.0523394,-118.2995462
CVS PHARMACY,"1701 S WESTERN AVELOS ANGELES, CA 90006",(323) 731-9247,1.54 mi,34.0427798,-118.3101498
VENICE PHARMACY INC.,"1514 S VERMONT AVE STE I-2LOS ANGELES, CA 90006",(213) 381-6087,1.54 mi,34.0446359,-118.2910807
EDEN PHARMACY,"2681 W OLYMPIC BLVD STE 102LOS ANGELES, CA 90006",(213) 381-7705,1.54 mi,34.0526304,-118.2908031
KT PLAZA PHARMACY,"928 S WESTERN AVE #110LOS ANGELES, CA 90006",(213) 382-0212,1.54 mi,34.0551603,-118.3083861
SILOAM PHARMACY,"2528 W OLYMPIC BLVD STE 102LOS ANGELES, CA 90006",(213) 382-0700,1.54 mi,34.0522684,-118.2849108
VERMONT VO PHARMACY,"2655 W OLYMPIC BLVDLOS ANGELES, CA 90006",(213) 480-1503,1.54 mi,34.0526184,-118.2898897
SMITH PHARMACY,"1732 S WESTERN AVELOS ANGELES, CA 90006",(323) 733-9390,1.54 mi,34.0418633,-118.3083975
YEH'S PHARMACY II,"966 S WESTERN AVE STE 103LOS ANGELES, CA 90006",(323) 733-7788,1.54 mi,34.0537762,-118.3088684
SERV U PHARMACY,"2034 W PICO BLVDLOS ANGELES, CA 90006",(213) 385-5225,1.54 mi,34.046652,-118.2828507
RITE AID PHARMACY,"1815 S VERMONT AVELOS ANGELES, CA 90006",(323) 735-0774,1.54 mi,34.0408691,-118.2921504
NORMANDY PHARMACY,"3003 W OLYMPIC BLVD STE 101LOS ANGELES, CA 90006",(213) 386-3001,1.54 mi,34.0529628,-118.3006096
LEE'S DISCOUNT DRUG,"2732 W OLYMPIC BLVDLOS ANGELES, CA 90006",(213) 382-6391,1.54 mi,34.0522477,-118.2928228
HARVARD PHARMACY,"3130 W OLYMPIC BLVD STE 150LOS ANGELES, CA 90006",(323) 732-1911,1.54 mi,34.052396,-118.303845
KORYO PHARMACY,"2727 W OLYMPIC BLVD STE 103LOS ANGELES, CA 90006",(213) 738-6970,1.54 mi,34.0528714,-118.2931919
LOS ANGELES DRUGS,"3030 W OLYMPIC BLVD STE 118LOS ANGELES, CA 90006",(213) 387-3030,1.54 mi,34.0523563,-118.3013531
GALLERIA PHARMACY,"3250 W OLYMPIC BLVD STE 101LOS ANGELES, CA 90006",(323) 733-7200,1.54 mi,34.0522327,-118.3085165
VERNBRO PHARMACY,"231 W VERNON AVELOS ANGELES, CA 90037",(323) 232-1111,1.71 mi,34.0040384,-118.2776489
VERNON MAIN PHARMACY,"4401 S MAIN STLOS ANGELES, CA 90037",(323) 231-9307,1.71 mi,34.0036261,-118.2745658
GOLDEN CARE PHARMACY,"4128 S BROADWAY STLOS ANGELES, CA 90037",(323) 234-9956,1.71 mi,34.0084999,-118.2779846
ST JOHNS WELL CHLD & FMLY CNTR PHCY,"808 W 58TH ST STE 123LOS ANGELES, CA 90037",(213) 226-7396,1.71 mi,33.9894926,-118.2876831
RITE AID PHARMACY,"4322 S FIGUEROA STLOS ANGELES, CA 90037",(323) 235-3535,1.71 mi,34.0049694,-118.2819424
QUALICARE PHARMACY SERVICES,"3779-3779 1/2 S WESTERN AVELOS ANGELES, CA 90018",(323) 731-4004,1.78 mi,34.0242306,-118.3087036
RITE AID PHARMACY,"1744 W 6TH STLOS ANGELES, CA 90017",(213) 413-2458,2.03 mi,34.0574106,-118.2715147
ARTHRITIS AND PAIN MEDICAL CENTER,"1127 WILSHIRE BLVD STE 1112LOS ANGELES, CA 90017",(213) 266-8200,2.03 mi,34.0531932,-118.2638542
GOOD SAMARITAN TOTAL CARE PHCY,"1245 WILSHIRE BLVD SUITE 201LOS ANGELES, CA 90017",(213) 977-4111,2.03 mi,34.0542438,-118.2658666
WALGREENS,"617 W 7TH STLOS ANGELES, CA 90017",(213) 694-2880,2.03 mi,34.0477631,-118.2570412
CVS PHARMACY,"812 S GRAND AVELOS ANGELES, CA 90017",(213) 627-7925,2.03 mi,34.0454052,-118.2578354
CVS PHARMACY,"735 S FIGUEROA STLOS ANGELES, CA 90017",(213) 330-4544,2.03 mi,34.0491696,-118.2608507
SAMARITAN MEDICAL TOWER PHCY,"1127 WILSHIRE BLVD, SUITE 201LOS ANGELES, CA 90017",(213) 482-0644,2.03 mi,34.0531932,-118.2638542
LA HEMATOLOGY ONCOLOGY MED GROUP,"1245 WILSHIRE BLVD #303LOS ANGELES, CA 90017",(323) 254-0046,2.03 mi,34.0542121,-118.2658386
TOTAL REMEDY & PRESCRIPTION CENTER,"1234 WILSHIRE BLVD STE 106LOS ANGELES, CA 90017",(213) 481-1130,2.03 mi,34.0533056,-118.2661004
SAMARITAN MEDICAL TOWER PHCY,"1127 WILSHIRE BLVD STE 201LOS ANGELES, CA 90017",(213) 482-0644,2.03 mi,34.0531932,-118.2638542
VERNON CENTRAL BOTICA PHARMACY,"4375 S CENTRAL AVELOS ANGELES, CA 90011",(323) 231-8992,2.07 mi,34.0040906,-118.2567091
CVS PHARMACY,"1025 E ADAMS BLVDLOS ANGELES, CA 90011",(213) 742-6849,2.07 mi,34.0192623,-118.2554489
OLIVE BRANCH PHARMACY,"2811 S SAN PEDRO STLOS ANGELES, CA 90011",(323) 432-2131,2.07 mi,34.0196589,-118.2628146
OLIVE BRANCH PHARMACY,"2070 S CENTRAL AVELOS ANGELES, CA 90011",(213) 536-4888,2.07 mi,34.0226158,-118.251964
PRIME PHARMACY SERVICES INC,"4211 AVALON BLVD STE 2LOS ANGELES, CA 90011",(323) 802-0306,2.07 mi,34.0073395,-118.2654638
CVS PHARMACY,"4030 S WESTERN AVELOS ANGELES, CA 90062",(323) 292-7009,2.09 mi,34.009847,-118.3081121
NOFEL PHARMACY,"215 E 7TH ST #ALOS ANGELES, CA 90014",(213) 623-9171,2.11 mi,34.0430686,-118.249901
LAC PMQ PHARMACY LA,"325 E 7TH ST RM 101LOS ANGELES, CA 90014",(213) 425-3131,2.11 mi,34.04215,-118.24855
CVS PHARMACY,"210 W 7TH STLOS ANGELES, CA 90014",(213) 327-0062,2.11 mi,34.0446725,-118.2527975
MARTIN PHARMACY,"801 S VERMONT AVE STE 104LOS ANGELES, CA 90005",(213) 382-9718,2.18 mi,34.0574559,-118.2920431
CVS PHARMACY,"620 S VIRGIL AVE STE 100LOS ANGELES, CA 90005",(213) 637-0215,2.18 mi,34.063198,-118.2865421
RALPHS PHARMACY,"670 S WESTERN AVELOS ANGELES, CA 90005",(213) 383-6207,2.18 mi,34.0600267,-118.3084788
KEY DRUG,"770 S VERMONT AVELOS ANGELES, CA 90005",(213) 383-2211,2.18 mi,34.057949,-118.2915288
UPTOWN DRUG COMPANY,"444 S FLOWER STLOS ANGELES, CA 90071",(213) 612-4300,2.30 mi,34.051561,-118.2549921
2010 PHARMACY,"2200 W 3RD ST STE 390LOS ANGELES, CA 90057",(213) 483-5910,2.32 mi,34.0632749,-118.2744516
ALTAMED HEALTH SERV PHCY WESTLAKE,"2100 W 3RD STREET SUITE 190LOS ANGELES, CA 90057",(323) 914-9800,2.32 mi,34.0625754,-118.2735486
MOTHERS PHARMACY AND NUTRITION,"2120 W 8TH STREET SUITE 103LOS ANGELES, CA 90057",(213) 263-2143,2.32 mi,34.0550281,-118.2787573
CLINICA MSR OSCAR ROMERO,"123 S ALVARADO STLOS ANGELES, CA 90057",(213) 201-2749,2.32 mi,34.066049,-118.2710977
AALPHA PHARMACY,"174 S ALVARADO STLOS ANGELES, CA 90057",(213) 483-8741,2.32 mi,34.0646131,-118.271414
CCRX,"1919 W 7TH STE STE MLOS ANGELES, CA 90057",(213) 674-7577,2.32 mi,34.0559882,-118.2750391
ECHO RX PHARMACY,"2426 W 8TH STREET SUITE 112LOS ANGELES, CA 90057",(213) 378-0122,2.32 mi,34.0562928,-118.2818904
T AND T PHARMACY 2,"2015 WILSHIRE BLVDLOS ANGELES, CA 90057",(213) 315-5383,2.32 mi,34.0577743,-118.275046
BEVERLY PHARMACY,"2105 BEVERLY BLVD STE 107LOS ANGELES, CA 90057",(213) 413-4448,2.32 mi,34.0671818,-118.2703406
NOUBARS EL ADOBE PHARMACY,"2010 WILSHIRE BLVD STE 2010FLOS ANGELES, CA 90057",(213) 413-3999,2.32 mi,34.0572759,-118.2751596
WESTLAKE PHARMACY,"529 S ALVARADO STLOS ANGELES, CA 90057",(213) 383-4262,2.32 mi,34.0602372,-118.2748653
ALVARADO DRUGS,"819 S ALVARADO STLOS ANGELES, CA 90057",(213) 388-9518,2.32 mi,34.0544286,-118.2784711
HAH INC,"2035 W 7TH STLOS ANGELES, CA 90057",(213) 483-4330,2.32 mi,34.056513,-118.2765794
EXPRESS RX INC,"2503 BEVERLY BLVD FL 1LOS ANGELES, CA 90057",(213) 353-0552,2.32 mi,34.0689715,-118.2751139
CVS PHARMACY,"3751 WILSHIRE BLVDLOS ANGELES, CA 90010",(213) 385-5030,2.45 mi,34.0620302,-118.3081121
WILSHIRE GRAND PHARMACY,"2974 WILSHIRE BLVDLOS ANGELES, CA 90010",(213) 480-1300,2.45 mi,34.0615419,-118.2862445
MINI PHARMACY,"2425 PORTER STLOS ANGELES, CA 90021",(888) 545-6464,2.47 mi,34.0268237,-118.2289513
RITE AID PHARMACY,"500 SOUTH BROADWAYLOS ANGELES, CA 90013",(213) 623-5820,2.57 mi,34.0478676,-118.2506598
KYOTO PHARMACY,"420 E 3RD ST STE 106LOS ANGELES, CA 90013",(213) 253-5999,2.57 mi,34.0466808,-118.2419722
PMQ PHARMACY 1,"522 S SAN PEDRO ST # 141LOS ANGELES, CA 90013",(213) 486-4071,2.57 mi,34.0432489,-118.2437768
ZION DRUG,"3900 W 3RD STLOS ANGELES, CA 90020",(213) 382-6485,2.73 mi,34.0688707,-118.2995492
J PHARMACY,"356 S WESTERN AVE STE 104-105LOS ANGELES, CA 90020",(213) 908-6424,2.73 mi,34.0673969,-118.3088885
HANMI PHARMACY INC.,"325 1/2 S WESTERN AVELOS ANGELES, CA 90020",(626) 422-1271,2.73 mi,34.068213,-118.309299
GRAND PHARMACY INC,"505 S VIRGIL AVE STE 107LOS ANGELES, CA 90020",(213) 380-5100,2.73 mi,34.064829,-118.287678
MOTHER'S CARE,"3500 W 6TH ST STE 120LOS ANGELES, CA 90020",(213) 739-3030,2.73 mi,34.0634289,-118.2983977
SERRANO MEDICAL PHARMACY,"4220 W 3RD ST STE 100LOS ANGELES, CA 90020",(213) 384-3405,2.73 mi,34.068779,-118.3062397
VIRGIL PHARMACY,"2999 W 6TH ST STE 103LOS ANGELES, CA 90020",(213) 384-1200,2.73 mi,34.0635005,-118.287332
"VERMONT GALLERIA PHARMACY,INC.","440 S VERMONT AVE # 109LOS ANGELES, CA 90020",(213) 388-4100,2.73 mi,34.0656433,-118.2913283
KINGSLEY PHARMACY,"3663 W 6TH ST STE 102LOS ANGELES, CA 90020",(213) 383-8877,2.73 mi,34.0637767,-118.3019225
SHYN'S PHARMACY,"520 S VIRGIL AVE STE 102LOS ANGELES, CA 90020",(213) 487-7535,2.73 mi,34.0644589,-118.2868529
VONS PHARMACY,"3461 W 3RD STLOS ANGELES, CA 90020",(213) 382-5971,2.73 mi,34.0700012,-118.2909396
RITE AID PHARMACY,"334 S VERMONT AVELOS ANGELES, CA 90020",(213) 381-5257,2.73 mi,34.0679664,-118.2907574
HYUNDAI DRUGS,"461 S WESTERN AVELOS ANGELES, CA 90020",(213) 480-3322,2.73 mi,34.065556,-118.3094781
RALPHS,"3410 W 3RD STLOS ANGELES, CA 90020",(213) 480-3112,2.73 mi,34.0683742,-118.2905459
WALGREENS,"3201 W 6TH STLOS ANGELES, CA 90020",(213) 251-0179,2.73 mi,34.0644462,-118.2920363
TAI ON PHARMACY,"818 N HILL ST STE ALOS ANGELES, CA 90012",(213) 625-3333,3.23 mi,34.0632492,-118.2390945
PING ON MEDICAL PHARMACY,"650 N BROADWAY STE BLOS ANGELES, CA 90012",(213) 617-3322,3.23 mi,34.0599524,-118.2393119
OLIVE HILL PHARMACY INC,"255 S HILL ST # 217LOS ANGELES, CA 90012",(213) 680-2000,3.23 mi,34.051938,-118.2493796
CHINATOWN PHARMACY,"709 N HILL ST #21LOS ANGELES, CA 90012",(213) 687-9999,3.23 mi,34.0616096,-118.2410128
CVS PHARMACY,"555 N BROADWAY # B101LOS ANGELES, CA 90012",(323) 275-0972,3.23 mi,34.0583722,-118.2409331
CVS PHARMACY,"1050 W SUNSET BLVDLOS ANGELES, CA 90012",(213) 975-1200,3.23 mi,34.0643397,-118.2493274
CVS PHARMACY,"201 N LOS ANGELES STLOS ANGELES, CA 90012",(213) 620-1491,3.23 mi,34.0525393,-118.2419951
LITTLE TOKYO PHARMACY,"402 E 2ND STLOS ANGELES, CA 90012",(213) 680-4011,3.23 mi,34.047141,-118.239209
BIG ONE PHARMACY,"656 N BROADWAYLOS ANGELES, CA 90012",(213) 617-7888,3.23 mi,34.060071,-118.2391968
LA VA CBOC METHADONE PHCY,"351 E TEMPLE STLOS ANGELES, CA 90012",(213) 253-2677,3.23 mi,34.0520292,-118.2385001
PING ON PHARMACY,"640 N BROADWAY STE 3LOS ANGELES, CA 90012",(213) 617-3333,3.23 mi,34.0595835,-118.2391854
COLUMBUS PHARMACY,"861 N BROADWAYLOS ANGELES, CA 90012",(213) 622-2777,3.23 mi,34.0639614,-118.2376764
LOS ANGELES VA CBOC PHARMACY,"351 EAST TEMPLE STREETLOS ANGELES, CA 90012",(213) 253-2677,3.23 mi,34.0520292,-118.2385001
RITE AID PHARMACY,"959 CRENSHAW BLVDLOS ANGELES, CA 90019",(323) 939-7911,3.31 mi,34.0551214,-118.3231419
CVS PHARMACY,"1302 S LA BREA AVE STE ALOS ANGELES, CA 90019",(323) 761-6468,3.31 mi,34.0493553,-118.3440007
THE PHARMACY DEPOT,"4948 W PICO BL, STE BLOS ANGELES, CA 90019",(323) 965-9885,3.31 mi,34.0474908,-118.344574
CVS PHARMACY,"4707 VENICE BLVDLOS ANGELES, CA 90019",(323) 938-9001,3.31 mi,34.0473388,-118.339346
BOKJEE PHARMACY,"903 S CRENSHAW BLVD 102BLOS ANGELES, CA 90019",(323) 932-0202,3.31 mi,34.0564251,-118.322397
WILTON PHARMACY,"3511 W OLYMPIC BLVD STE 102LOS ANGELES, CA 90019",(323) 731-0600,3.31 mi,34.0529395,-118.3151905
ETHICAL DRUGS,"254 N WESTERN AVELOS ANGELES, CA 90004",(323) 467-2101,3.38 mi,34.076086,-118.3089919
CLOVER CARE PHARMACY,"266 S HARVARD BLVD STE 140LOS ANGELES, CA 90004",(213) 384-8763,3.38 mi,34.069218,-118.3037864
ZENITH PHARMACY,"3919 BEVERLY BLVD STE 101LOS ANGELES, CA 90004",(323) 665-8959,3.38 mi,34.0765122,-118.2941828
WOORI PHARMACY INC,"266 S HARVARD BLVD STE 120LOS ANGELES, CA 90004",(213) 384-6323,3.38 mi,34.0692311,-118.3037926
HK PHARMACY,"124 N WESTERN AVELOS ANGELES, CA 90004",(323) 464-3925,3.38 mi,34.0742717,-118.3087515
RITE AID PHARMACY,"226 N LARCHMONT BLVDLOS ANGELES, CA 90004",(323) 467-1366,3.38 mi,34.075469,-118.3233188
CALIFORNIA MEDICAL PHARMACY,"2201 W TEMPLE STLOS ANGELES, CA 90026",(213) 413-2343,3.50 mi,34.070931,-118.269427
ECHO PARK PHARMACY,"1634 W SUNSET BLVDLOS ANGELES, CA 90026",(213) 341-1411,3.50 mi,34.0770123,-118.2584128
WALGREENS,"1625 W SUNSET BLVDLOS ANGELES, CA 90026",(213) 482-9286,3.50 mi,34.07777,-118.2576268
BEYOND THE PHARMACY,"3730 W SUNSET BLVDLOS ANGELES, CA 90026",(323) 660-3667,3.50 mi,34.090689,-118.278736
RITE AID PHARMACY,"1433 GLENDALE BLVDLOS ANGELES, CA 90026",(213) 483-3468,3.50 mi,34.0810475,-118.2607936
10TH AVE PHARMACY,"2706 W MARTIN LUTHER KING BLVDLOS ANGELES, CA 90008",(323) 298-7693,3.53 mi,34.0104623,-118.3225534
STOCKER RX PHARMACY,"3750 SANTA ROSALIA DR UNIT #1LOS ANGELES, CA 90008",(323) 295-3194,3.53 mi,34.0078445,-118.3388416
GARFIELD PRESCRIPTION PHARMACY,"3756 SANTA ROSALIA DRLOS ANGELES, CA 90008",(323) 295-5585,3.53 mi,34.0088401,-118.3392091
SAV-ON PHARMACY,"3901 CRENSHAW BLVDLOS ANGELES, CA 90008",(323) 295-3330,3.53 mi,34.0140587,-118.3357846
CVS PHARMACY,"3535 S LA CIENEGA BLVDLOS ANGELES, CA 90016",(310) 895-1132,3.80 mi,34.0234438,-118.3737787
WALGREENS,"3745 S LA BREA AVE STE CLOS ANGELES, CA 90016",(323) 801-0261,3.80 mi,34.0186768,-118.3559238
CRENSHAW PHARMACY,"3631 CRENSHAW BLVD STE 111LOS ANGELES, CA 90016",(323) 732-5555,3.80 mi,34.0229836,-118.3356469
WALGREENS,"3724 CRENSHAW BLVDLOS ANGELES, CA 90016",(323) 292-7261,3.80 mi,34.0190744,-118.334661
CVS PHARMACY,"5101 OBAMA BLVDLOS ANGELES, CA 90016",(323) 936-0279,3.80 mi,34.0223299,-118.3561479
CVS PHARMACY,"3741 CRENSHAW BLVDLOS ANGELES, CA 90016",(323) 298-5595,3.80 mi,34.0187108,-118.3359255
PARK MESA PHARMACY,"4314 W SLAUSON AVE SUITE 1LOS ANGELES, CA 90043",(323) 378-3323,4.10 mi,33.9886838,-118.3509888
CVS PHARMACY,"4501 W SLAUSON AVELOS ANGELES, CA 90043",(323) 292-4114,4.10 mi,33.9892887,-118.3545129
RITE AID PHARMACY,"3230 W SLAUSON AVELOS ANGELES, CA 90043",(323) 295-9661,4.10 mi,33.9881973,-118.3287503
RITE AID PHARMACY,"1534 E FLORENCE AVELOS ANGELES, CA 90001",(323) 587-6336,4.20 mi,33.9744687,-118.2463737
WALGREENS,"1500 E GAGE AVELOS ANGELES, CA 90001",(323) 581-0964,4.20 mi,33.9811924,-118.247395
BRAVO PHARMACY,"7316 COMPTON AVE.LOS ANGELES, CA 90001",(323) 586-9828,4.20 mi,33.9731093,-118.2469976
CVS PHARMACY,"5837 S CENTRAL AVELOS ANGELES, CA 90001",(323) 233-2493,4.20 mi,33.9887682,-118.2571391
FLORENCE PHCY & MEDICAL SUPPLY,"1422 E FLORENCE AVELOS ANGELES, CA 90001",(323) 277-9500,4.20 mi,33.9745346,-118.2490762
RITE AID PHARMACY,"4633 SANTA MONICA BLVDLOS ANGELES, CA 90029",(323) 666-6125,4.28 mi,34.0918998,-118.2903921
UMC PHARMACY INC,"1201 1/2 N VERMONT AVELOS ANGELES, CA 90029",(323) 661-2223,4.28 mi,34.1039277,-118.2915696
PMQ VERMONT PHARMACY,"954 N VERMONT AVE # 132LOS ANGELES, CA 90029",(323) 454-4866,4.28 mi,34.0889574,-118.2914425
QUEENSCARE HEALTH CENTER PHARMACY,"4618 FOUNTAIN AVELOS ANGELES, CA 90029",(323) 635-1152,4.28 mi,34.095311,-118.2903464
ALEXANDER PHARMACY,"1084 N WESTERN AVELOS ANGELES, CA 90029",(323) 467-1084,4.28 mi,34.0903185,-118.3089384
ELITE CARE PHARMACY,"5101 SANTA MONICA BLVD #6LOS ANGELES, CA 90029",(323) 426-9990,4.28 mi,34.0911736,-118.3008925
SMITH PHARMACY INC,"1107 N WESTERN AVELOS ANGELES, CA 90029",(323) 461-8331,4.28 mi,34.0910338,-118.3094593
"HYE PHARMACY, INC.","5236 SANTA MONICA BLVDLOS ANGELES, CA 90029",(323) 661-7152,4.28 mi,34.090572,-118.3045916
WESTERN MEDICAL PHARMACY,"1110 N WESTERN AVE STE 101LOS ANGELES, CA 90029",(323) 465-3112,4.28 mi,34.0913765,-118.3087286
ST. LOUIS DRUG COMPANY,"2100 E 1ST STLOS ANGELES, CA 90033",(323) 268-6819,4.47 mi,34.0447372,-118.2137503
COL PHARMACY,"305 N SOTO ST SUITE ALOS ANGELES, CA 90033",(323) 673-9543,4.47 mi,34.047227,-118.2078646
WALGREENS,"305 N BREED STLOS ANGELES, CA 90033",(323) 264-0347,4.47 mi,34.0475804,-118.2089384
WALGREENS,"1902 MARENGO ST STE 105LOS ANGELES, CA 90033",(323) 405-0417,4.47 mi,34.0575059,-118.210176
PACIFIC DRUGS,"1047 N STATE STLOS ANGELES, CA 90033",(323) 226-0237,4.47 mi,34.0573428,-118.2106519
LA CHRISTIAN HEALTH CENTERS,"1625 E 4TH STLOS ANGELES, CA 90033",(323) 859-2823,4.47 mi,34.0431498,-118.2219334
WHITE MEMORIAL MED PLAZA PHCY,"1701 E CESAR E CHAVEZ AVE 109LOS ANGELES, CA 90033",(323) 221-6000,4.47 mi,34.0513785,-118.2171632
RAMIREZ PHARMACY,"2403 E CESAR E CHAVEZ AVELOS ANGELES, CA 90033",(323) 269-7329,4.47 mi,34.0468788,-118.2075804
BOTICA DEL SOL,"2331 E CESAR E CHAVEZ AVELOS ANGELES, CA 90033",(323) 260-7531,4.47 mi,34.0470415,-118.2078429
BOYLE HEIGHTS MEDICAL PHARMACY,"1611 E CESAR CHAVEZ AVELOS ANGELES, CA 90033",(323) 222-0736,4.47 mi,34.0517204,-118.2182826
USC MEDICAL PLAZA PHARMACY,"1510 SAN PABLO ST STE 144LOS ANGELES, CA 90033",(323) 442-5770,4.47 mi,34.0620229,-118.2019956
OLYMPIA PLAZA PHARMACY,"5901 W OLYMPIC BLVD STE 103LOS ANGELES, CA 90036",(323) 937-2590,4.55 mi,34.0579402,-118.3601262
CVS PHARMACY,"303 S LA BREA AVELOS ANGELES, CA 90036",(323) 634-0743,4.55 mi,34.0685338,-118.3443245
SYD'S PHARMACY,"7111 BEVERLY BLVDLOS ANGELES, CA 90036",(323) 933-8571,4.55 mi,34.0763472,-118.344667
CVS PHARMACY,"415 S LA BREA AVELOS ANGELES, CA 90036",(323) 761-6401,4.55 mi,34.0661484,-118.3443787
CVS PHARMACY,"6360 W 3RD STLOS ANGELES, CA 90036",(323) 937-3019,4.55 mi,34.0702166,-118.3610785
FAIRFAX DISCOUNT PHARMACY,"7771 BEVERLY BLVDLOS ANGELES, CA 90036",(323) 937-1111,4.55 mi,34.0763497,-118.3592545
RITE AID PHARMACY,"5575 WILSHIRE BLVDLOS ANGELES, CA 90036",(323) 954-7193,4.55 mi,34.062723,-118.3501245
WALGREENS,"5467 WILSHIRE BLVDLOS ANGELES, CA 90036",(323) 525-0646,4.55 mi,34.0626305,-118.3479348
RALPHS,"5601 WILSHIRE BLVDLOS ANGELES, CA 90036",(323) 936-0050,4.55 mi,34.0628031,-118.3507642
SUNSHINE PHARMACY,"357 N FAIRFAX AVELOS ANGELES, CA 90036",(323) 653-8692,4.55 mi,34.0778264,-118.3615938
RALPHS,"260 S LA BREA AVELOS ANGELES, CA 90036",(323) 937-9383,4.55 mi,34.0699674,-118.3435476
PAVILIONS PHARMACY,"727 VINE STLOS ANGELES, CA 90038",(323) 466-7158,4.64 mi,34.0844797,-118.3271089
JANA HEALTHCARE PHARMACY,"5233 MELROSE AVELOS ANGELES, CA 90038",(323) 836-0007,4.64 mi,34.0836657,-118.3147986
CVS PHARMACY,"861 VINE STHOLLYWOOD, CA 90038",(323) 466-7300,4.64 mi,34.086765,-118.3269262
VINE DISCOUNT PHCY & MED SUPPLY INC,"1253 VINE ST STE 11LOS ANGELES, CA 90038",(323) 957-9446,4.64 mi,34.0939699,-118.3269703
WALGREENS,"1050 N HIGHLAND AVELOS ANGELES, CA 90038",(323) 463-1692,4.64 mi,34.0904035,-118.3381132
SABAN COMMUNITY CLINIC PHARMACY,"5205 MELROSE AVELOS ANGELES, CA 90038",(323) 337-1815,4.64 mi,34.0837698,-118.3139575
RITE AID PHARMACY,"1130 N LA BREA AVEWEST HOLLYWOOD, CA 90038",(323) 463-8539,4.64 mi,34.0915044,-118.3432172
RALPHS,"1233 N LA BREA AVEWEST HOLLYWOOD, CA 90038",(323) 876-5651,4.64 mi,34.09347,-118.3445511
KING PHARMACY,"2707 WHITTIER BLVDLOS ANGELES, CA 90023",(323) 262-8845,4.79 mi,34.0327698,-118.2115538
MY PHARMACIST ON CALL,"3426 WHITTIER BLVDLOS ANGELES, CA 90023",(323) 263-8617,4.79 mi,34.027243,-118.2002893
ALTAMED HEALTH SERVICES CORP,"3945 WHITTIER BLVD ROOM 100LOS ANGELES, CA 90023",(899) 499-9303,4.79 mi,34.0243129,-118.1876892
CVS PHARMACY,"3644 E OLYMPIC BLVDLOS ANGELES, CA 90023",(323) 264-0496,4.79 mi,34.0179344,-118.1990791
MOLINAS PHARMACY,"3746 WHITTIER BLVDLOS ANGELES, CA 90023",(323) 261-3504,4.79 mi,34.0238547,-118.1924165
LORENA PHARMACY,"3400 WHITTIER BLVDLOS ANGELES, CA 90023",(323) 268-3384,4.79 mi,34.0272373,-118.200896
MORNINGSIDE MEDICAL PHARMACY INC,"1704 W MANCHESTER AVE 100LOS ANGELES, CA 90047",(323) 753-1333,5.07 mi,33.9596239,-118.3070585
WALGREENS,"1800 W SLAUSON AVELOS ANGELES, CA 90047",(323) 292-1941,5.07 mi,33.9888654,-118.3098931
THE MEDICINE CABINET,"7119 RITA AVE STE BHUNTINGTON PARK, CA 90255",(323) 581-9106,5.15 mi,33.9748393,-118.2241082
SLAUSON COMMUNITY PHARMACY,"2701 E SLAUSON AVEHUNTINGTON PARK, CA 90255",(323) 588-6000,5.15 mi,33.989301,-118.2225101
ALTAMED PHARMACY HUNTINGTON PARK,"1900 E SLAUSON AVE RM 100HUNTINGTON PARK, CA 90255",(888) 499-9303,5.15 mi,33.9887475,-118.2370207
CVS PHARMACY,"3208 E FLORENCE AVEHUNTINGTON PARK, CA 90255",(323) 589-1916,5.15 mi,33.9721638,-118.2105377
WALGREENS,"6100 PACIFIC BLVDHUNTINGTON PARK, CA 90255",(323) 826-9775,5.15 mi,33.9849408,-118.2242453
B7 PHARMACY,"2675 E SLAUSON AVE SUITE AHUNTINGTON PARK, CA 90255",(323) 487-7007,5.15 mi,33.9895026,-118.2229178
986 PHARMACY,"2670 E GAGE AVE STE 10AHUNTINGTON PARK, CA 90255",(323) 749-6500,5.15 mi,33.9812016,-118.2230117
HEALTHY FAMILY PHARMACY,"7932 SEVILLE AVEHUNTINGTON PARK, CA 90255",(323) 582-5286,5.15 mi,33.9656605,-118.2222751
"ST. LUKE PHARMACY, INC.","7024 SEVILLE AVE STE EHUNTINGTON PARK, CA 90255",(323) 587-1200,5.15 mi,33.9756779,-118.2221322
CVS PHARMACY,"7300 S ALAMEDA STWALNUT PARK, CA 90255",(323) 583-0638,5.15 mi,33.9736244,-118.2330176
CVS PHARMACY,"5960 PACIFIC BLVDHUNTINGTON PARK, CA 90255",(323) 589-6703,5.15 mi,33.9885466,-118.2233071
COURTESY DRUG,"3180 E FLORENCE AVEHUNTINGTON PARK, CA 90255",(323) 583-4307,5.15 mi,33.9721638,-118.2105377
CAMERON PHARMACY,"7119 SEVILLE AVE STE DHUNTINGTON PARK, CA 90255",(323) 582-5171,5.15 mi,33.9749171,-118.2228289
SAN MARTIN PHARMACY,"2699 E FLORENCE AVEHUNTINGTON PARK, CA 90255",(323) 582-6078,5.15 mi,33.974147,-118.2226233
MANCHESTER PROFESSIONAL PHARMACY,"600 W MANCHESTER AVELOS ANGELES, CA 90044",(323) 750-3523,5.19 mi,33.9597773,-118.2845915
CVS PHARMACY,"5822 S VERMONT AVELOS ANGELES, CA 90044",(323) 750-5222,5.19 mi,33.9889587,-118.2895472
RITE AID PHARMACY,"111 E AVENUE STE 26LOS ANGELES, CA 90031",(323) 222-8876,5.24 mi,34.076693,-118.2154443
LOVVIT PHARMACY,"3532 N BROADWAYLOS ANGELES, CA 90031",(323) 987-0315,5.24 mi,34.0736137,-118.2027263
CVS PHARMACY,"2419 WORKMAN STLOS ANGELES, CA 90031",(323) 223-9059,5.24 mi,34.0739574,-118.2147415
GATEWAY CIRCLE PHARMACY,"3133 N BROADWAYLOS ANGELES, CA 90031",(323) 223-3228,5.24 mi,34.0740143,-118.2080016
UPTIMUM MEDICAL PHARMACY,"2220 MANCHESTER BLVDINGLEWOOD, CA 90305",(310) 644-8400,5.45 mi,33.9597671,-118.3185147
RITE AID PHARMACY,"6130 W SUNSET BLVDLOS ANGELES, CA 90028",(323) 467-4201,5.50 mi,34.0975154,-118.323236
WALGREENS,"1501 VINE STLOS ANGELES, CA 90028",(323) 467-7916,5.50 mi,34.0982114,-118.3268891
CVS PHARMACY,"5500 W SUNSET BLVDLOS ANGELES, CA 90028",(323) 762-1704,5.50 mi,34.0978198,-118.309755
CVS PHARMACY,"6201 HOLLYWOOD BLVD STE 126LOS ANGELES, CA 90028",(323) 467-7954,5.50 mi,34.1018822,-118.3249023
WILTON CARE PHARMACY,"5660 HOLLYWOOD BLVDLOS ANGELES, CA 90028",(323) 463-0800,5.50 mi,34.1015819,-118.3134448
CVS PHARMACY,"7021 HOLLYWOOD BLVDLOS ANGELES, CA 90028",(323) 836-0307,5.50 mi,34.1018899,-118.3430221
CVS PHARMACY,"1747 N CAHUENGA BLVDHOLLYWOOD, CA 90028",(323) 463-7900,5.50 mi,34.1032172,-118.3302139
THE JEFFREY GOODMAN SPECIAL CA,"1625 SCHRADER BLVDLOS ANGELES, CA 90028",(323) 993-7513,5.50 mi,34.1005519,-118.3327323
TFC PHARMACY,"4914 1/2 W SLAUSON AVELOS ANGELES, CA 90056",(323) 348-4205,5.54 mi,33.9887206,-118.3373142
SPECIALIST MEDICAL PHARMACY,"421 E BEACH AVE STE AINGLEWOOD, CA 90302",(310) 674-4432,5.65 mi,33.9705458,-118.3486831
MEDRX INFUSION,"415-417 N OAK STINGLEWOOD, CA 90302",(310) 671-2600,5.65 mi,33.9674556,-118.3658495
MID-WEST MEDICAL PHARMACY,"8733 BEVERLY BLVDWEST HOLLYWOOD, CA 90048",(310) 657-1635,5.90 mi,34.0771154,-118.3815757
SYNERGY HEMA ONCOLOGY MEDICAL,"8737 BEVERLY BLVD STE 203LOS ANGELES, CA 90048",(323) 525-1111,5.90 mi,34.0771267,-118.3818496
SABAN COMMUNITY CLINIC PHCY,"8405 BEVERLY BLVDLOS ANGELES, CA 90048",(323) 330-1684,5.90 mi,34.0763371,-118.373432
CEDARMAK PHARMACY,"8737 BEVERLY BLVD STE 102WEST HOLLYWOOD, CA 90048",(424) 303-7860,5.90 mi,34.0771267,-118.3818496
BIOMED PHARMACY SOLUTIONS,"8640 W 3RD ST STE 100LOS ANGELES, CA 90048",(310) 299-0808,5.90 mi,34.0733989,-118.3813251
SAL PHARMACY,"8614 W. THIRD STREETLOS ANGELES, CA 90048",(310) 860-9809,5.90 mi,34.0734188,-118.3801937
CEDARS-SINAI MEDICAL CTR AHSP,"127 S SAN VICENTE BLVD # 2403LOS ANGELES, CA 90048",(310) 423-1400,5.90 mi,34.0746919,-118.3789723
CAPSULE PHARMACY,"8065 W 3RD STREETLOS ANGELES, CA 90048",(562) 977-7763,5.90 mi,34.0722314,-118.3654271
CENTURY BEVERLY HILLS PHARMACY,"412 S SAN VICENTE BLVDLOS ANGELES, CA 90048",(310) 360-1015,5.90 mi,34.0713299,-118.3758729
DNM PHARMACY,"6221 WILSHIRE BLVD STE 100LOS ANGELES, CA 90048",(323) 634-8930,5.90 mi,34.0635002,-118.3640232
CEDARS-SINAI MED CTR PHCY,"8723 ALDEN DR #S244LOS ANGELES, CA 90048",(310) 423-5775,5.90 mi,34.0754877,-118.3823894
BEVERLY PHARMACY,"7909 BEVERLY BLVDLOS ANGELES, CA 90048",(323) 651-3249,5.90 mi,34.0762678,-118.3619571
CVS PHARMACY,"8490 BEVERLY BLVDLOS ANGELES, CA 90048",(323) 653-0217,5.90 mi,34.0755018,-118.3759341
WILSHIRE LA JOLLA PHARMACY INC,"6360 WILSHIRE BLVDLOS ANGELES, CA 90048",(323) 658-6611,5.90 mi,34.0634228,-118.3676123
EDDIE'S PHARMACY,"8408 BEVERLY BLVDLOS ANGELES, CA 90048",(310) 358-2400,5.90 mi,34.0757975,-118.3735218
CEDAR SINAI MED CENTER,"444 S SAN VICENTE BLVD STE 104LOS ANGELES, CA 90048",(310) 423-9550,5.90 mi,34.0701384,-118.3752833
SPAULDING PHARMACY,"7722 SANTA MONICA BLVDWEST HOLLYWOOD, CA 90046",(323) 656-3663,6.31 mi,34.090505,-118.357586
CVS PHARMACY,"8000 W SUNSET BLVDLOS ANGELES, CA 90046",(323) 656-1477,6.31 mi,34.0976043,-118.365233
CVS PHARMACY,"7500 MELROSE AVELOS ANGELES, CA 90046",(323) 782-4209,6.31 mi,34.0833754,-118.3536158
AHF PHARMACY WEST HOLLYWOOD,"8212 SANTA MONICA BLVDWEST HOLLYWOOD, CA 90046",(323) 654-0907,6.31 mi,34.0905914,-118.3674975
RALPHS PHARMACY,"7257 W SUNSET BLVDLOS ANGELES, CA 90046",(323) 512-0268,6.31 mi,34.098482,-118.3484023
NATIONAL PHARMACY,"7420 SANTA MONICA BLVDWEST HOLLYWOOD, CA 90046",(323) 851-4444,6.31 mi,34.0905524,-118.3516508
CVS PHARMACY,"7100 SANTA MONICA BLVD STE 201WEST HOLLYWOOD, CA 90046",(323) 603-0005,6.31 mi,34.0901536,-118.3458103
CIENEGA PHARMACY,"7360 SANTA MONICA BLVD #101WEST HOLLYWOOD, CA 90046",(310) 360-9969,6.31 mi,34.0904498,-118.3507833
FAIRFAX PHARMACY,"1111 N FAIRFAX AVE STE 110WEST HOLLYWOOD, CA 90046",(323) 656-9622,6.31 mi,34.0911849,-118.3618016
SIMON'S DISCOUNT PHARMACY,"7256 W SUNSET BLVDLOS ANGELES, CA 90046",(323) 874-2507,6.31 mi,34.0978339,-118.3484979
CURSON PHARMACY,"7559 SANTA MONICA BLVDWEST HOLLYWOOD, CA 90046",(323) 878-2555,6.31 mi,34.0911857,-118.3548393
RITE AID PHARMACY,"7900 W SUNSET BLVDLOS ANGELES, CA 90046",(323) 876-4466,6.31 mi,34.0976504,-118.3619718
MEDICAL CENTER PHARMACY,"501 E HARDY ST STE 130INGLEWOOD, CA 90301",(310) 671-7636,6.33 mi,33.9493994,-118.3488658
ALLIANCE PHARMACY,"323 N PRAIRIE AVE STE 100INGLEWOOD, CA 90301",(310) 419-4479,6.33 mi,33.9663825,-118.3442772
CVS PHARMACY,"222 N MARKET STINGLEWOOD, CA 90301",(310) 677-2171,6.33 mi,33.964899,-118.3508518
FREEMAN MEDICAL PHARMACY,"301 N PRAIRIE AVE STE 110INGLEWOOD, CA 90301",(310) 672-7000,6.33 mi,33.9657419,-118.3442772
VONS PHARMACY,"500 E MANCHESTER BLVDINGLEWOOD, CA 90301",(310) 677-0501,6.33 mi,33.9604025,-118.3492995
CVS PHARMACY,"3471 W CENTURY BLVDINGLEWOOD, CA 90301",(310) 677-5937,6.33 mi,33.9483124,-118.3335923
WALGREENS,"230 N LA BREA AVEINGLEWOOD, CA 90301",(310) 671-2471,6.33 mi,33.9663986,-118.3527302
